[{"OBJECT_NAME":"ION SCV-017","OBJECT_ID":"2025-052W","EPOCH":"2026-03-09T17:11:44.577024","MEAN_MOTION":15.26881798,"ECCENTRICITY":0.0023746,"INCLINATION":97.4016,"RA_OF_ASC_NODE":324.7516,"ARG_OF_PERICENTER":44.9875,"MEAN_ANOMALY":315.3282,"EPHEMERIS_TYPE":0,"CLASSIFICATION_TYPE":"U","NORAD_CAT_ID":63230,"ELEMENT_SET_NO":999,"REV_AT_EPOCH":5485,"BSTAR":0.00024539061,"MEAN_MOTION_DOT":6.457e-5,"MEAN_MOTION_DDOT":0},{"OBJECT_NAME":"STARLINK-34892","OBJECT_ID":"2025-189AD","EPOCH":"2026-03-09T15:39:51.708384","MEAN_MOTION":15.30181212,"ECCENTRICITY":9.399e-5,"INCLINATION":53.1593,"RA_OF_ASC_NODE":206.7315,"ARG_OF_PERICENTER":90.7848,"MEAN_ANOMALY":269.326,"EPHEMERIS_TYPE":0,"CLASSIFICATION_TYPE":"U","NORAD_CAT_ID":65350,"ELEMENT_SET_NO":999,"REV_AT_EPOCH":3105,"BSTAR":0.0011708378,"MEAN_MOTION_DOT":0.00034458,"MEAN_MOTION_DDOT":0}]
